*******************************************************************************
Ephemeris / WWW_USER Mon Mar 24 07:45:41 2025 Pasadena, USA      / Horizons    
*******************************************************************************
Target body name: (2018 TC)                       {source: JPL#10}
Center body name: Earth (399)                     {source: DE441}
Center-site name: Mauna Kea
*******************************************************************************
Start time      : A.D. 2018-Sep-26 04:24:00.0000 UT      
Stop  time      : A.D. 2018-Sep-26 16:02:00.0000 UT      
Step-size       : 1 minutes
*******************************************************************************
Target pole/equ : undefined
Target radii    : undefined                                                    
Center geodetic : 204.5278, 19.8260847, 4.21024   {E-lon(deg),Lat(deg),Alt(km)}
Center cylindric: 204.5278, 6006.35451, 2151.0229 {E-lon(deg),Dxy(km),Dz(km)}
Center pole/equ : ITRF93                          {East-longitude positive}
Center radii    : 6378.137, 6378.137, 6356.752 km {Equator_a, b, pole_c}       
Target primary  : Sun
Vis. interferer : MOON (R_eq= 1737.400) km        {source: DE441}
Rel. light bend : Sun                             {source: DE441}
Rel. lght bnd GM: 1.3271E+11 km^3/s^2                                          
Small-body perts: Yes                             {source: SB441-N16}
Atmos refraction: NO (AIRLESS)
RA format       : HMS
Time format     : CAL 
Calendar mode   : Mixed Julian/Gregorian
RTS-only print  : NO       
EOP file        : eop.250321.p250617                                           
EOP coverage    : DATA-BASED 1962-JAN-20 TO 2025-MAR-21. PREDICTS-> 2025-JUN-16
Units conversion: 1 au= 149597870.700 km, c= 299792.458 km/s, 1 day= 86400.0 s 
Table cut-offs 1: Elevation (-90.0deg=NO ),Airmass (>38.000=NO), Daylight (YES)
Table cut-offs 2: Solar elongation (  0.0,180.0=NO ),Local Hour Angle( 0.0=NO )
Table cut-offs 3: RA/DEC angular rate (     0.0=NO )                           
*******************************************************************************
Initial IAU76/J2000 heliocentric ecliptic osculating elements (au, days, deg.):
  EPOCH=  2458399.5 ! 2018-Oct-08.00 (TDB)         Residual RMS= .20211        
   EC= .2253304451868516   QR= .9525668516843322   TP= 2458354.2554697809      
   OM= 188.9146441926015   W=  135.2493409557404   IN= 3.631837316097226       
  Equivalent ICRF heliocentric cartesian coordinates (au, au/d):
   X= 9.874490534016482E-01  Y= 2.414303737329446E-01  Z= 9.746991415829437E-02
  VX=-1.955204385424240E-03 VY= 1.722364762632024E-02 VZ= 6.197883797821973E-03
Asteroid physical parameters (km, seconds, rotational period in hours):        
   GM= n.a.                RAD= n.a.               ROTPER= n.a.                
   H= 26.6                 G= .150                 B-V= n.a.                   
                           ALBEDO= n.a.            STYP= n.a.                  
*******************************************************************************
 Date__(UT)__HR:MN     R.A._________(ICRF)_________DEC
******************************************************
$$SOE
 2018-Sep-26 14:39  m  14 43 43.491684 +10 03 32.80405
 2018-Sep-26 14:40  m  14 43 43.889507 +10 03 36.61060
 2018-Sep-26 14:41  m  14 43 44.287094 +10 03 40.42008
 2018-Sep-26 14:42  m  14 43 44.684445 +10 03 44.23251
 2018-Sep-26 14:43  m  14 43 45.081554 +10 03 48.04787
 2018-Sep-26 14:44  m  14 43 45.478420 +10 03 51.86617
 2018-Sep-26 14:45  m  14 43 45.875040 +10 03 55.68740
 2018-Sep-26 14:46  m  14 43 46.271409 +10 03 59.51156
 2018-Sep-26 14:47  m  14 43 46.667527 +10 04 03.33865
 2018-Sep-26 14:48  m  14 43 47.063388 +10 04 07.16867
 2018-Sep-26 14:49  m  14 43 47.458992 +10 04 11.00161
 2018-Sep-26 14:50  m  14 43 47.854334 +10 04 14.83747
 2018-Sep-26 14:51  m  14 43 48.249411 +10 04 18.67625
 2018-Sep-26 14:52  m  14 43 48.644222 +10 04 22.51794
 2018-Sep-26 14:53  m  14 43 49.038762 +10 04 26.36255
 2018-Sep-26 14:54  m  14 43 49.433029 +10 04 30.21008
 2018-Sep-26 14:55  m  14 43 49.827020 +10 04 34.06051
 2018-Sep-26 14:56  m  14 43 50.220732 +10 04 37.91385
 2018-Sep-26 14:57  m  14 43 50.614163 +10 04 41.77009
 2018-Sep-26 14:58  m  14 43 51.007308 +10 04 45.62924
 2018-Sep-26 14:59 Am  14 43 51.400166 +10 04 49.49128
 2018-Sep-26 15:00 Am  14 43 51.792733 +10 04 53.35622
 2018-Sep-26 15:01 Am  14 43 52.185007 +10 04 57.22406
 2018-Sep-26 15:02 Am  14 43 52.576985 +10 05 01.09478
 2018-Sep-26 15:03 Am  14 43 52.968664 +10 05 04.96840
 2018-Sep-26 15:04 Am  14 43 53.360040 +10 05 08.84490
 2018-Sep-26 15:05 Am  14 43 53.751112 +10 05 12.72429
 2018-Sep-26 15:06 Am  14 43 54.141875 +10 05 16.60655
 2018-Sep-26 15:07 Am  14 43 54.532329 +10 05 20.49169
 2018-Sep-26 15:08 Am  14 43 54.922469 +10 05 24.37971
 2018-Sep-26 15:09 Am  14 43 55.312292 +10 05 28.27060
 2018-Sep-26 15:10 Am  14 43 55.701797 +10 05 32.16435
 2018-Sep-26 15:11 Am  14 43 56.090979 +10 05 36.06098
 2018-Sep-26 15:12 Am  14 43 56.479837 +10 05 39.96046
 2018-Sep-26 15:13 Am  14 43 56.868367 +10 05 43.86281
 2018-Sep-26 15:14 Am  14 43 57.256567 +10 05 47.76801
 2018-Sep-26 15:15 Am  14 43 57.644434 +10 05 51.67606
 2018-Sep-26 15:16 Am  14 43 58.031965 +10 05 55.58697
 2018-Sep-26 15:17 Am  14 43 58.419157 +10 05 59.50072
 2018-Sep-26 15:18 Am  14 43 58.806007 +10 06 03.41732
 2018-Sep-26 15:19 Am  14 43 59.192514 +10 06 07.33675
 2018-Sep-26 15:20 Am  14 43 59.578673 +10 06 11.25903
 2018-Sep-26 15:21 Am  14 43 59.964483 +10 06 15.18413
 2018-Sep-26 15:22 Am  14 44 00.349940 +10 06 19.11207
 2018-Sep-26 15:23 Am  14 44 00.735041 +10 06 23.04284
 2018-Sep-26 15:24 Am  14 44 01.119785 +10 06 26.97642
 2018-Sep-26 15:25 Nm  14 44 01.504168 +10 06 30.91283
 2018-Sep-26 15:26 Nm  14 44 01.888188 +10 06 34.85206
 2018-Sep-26 15:27 Nm  14 44 02.271841 +10 06 38.79410
 2018-Sep-26 15:28 Nm  14 44 02.655125 +10 06 42.73895
 2018-Sep-26 15:29 Nm  14 44 03.038038 +10 06 46.68660
 2018-Sep-26 15:30 Nm  14 44 03.420577 +10 06 50.63706
 2018-Sep-26 15:31 Nm  14 44 03.802739 +10 06 54.59032
 2018-Sep-26 15:32 Nm  14 44 04.184521 +10 06 58.54637
 2018-Sep-26 15:33 Nm  14 44 04.565920 +10 07 02.50521
 2018-Sep-26 15:34 Nm  14 44 04.946935 +10 07 06.46684
 2018-Sep-26 15:35 Nm  14 44 05.327562 +10 07 10.43126
 2018-Sep-26 15:36 Nm  14 44 05.707799 +10 07 14.39845
 2018-Sep-26 15:37 Nm  14 44 06.087643 +10 07 18.36842
 2018-Sep-26 15:38 Nm  14 44 06.467092 +10 07 22.34116
 2018-Sep-26 15:39 Nm  14 44 06.846142 +10 07 26.31668
 2018-Sep-26 15:40 Nm  14 44 07.224792 +10 07 30.29495
 2018-Sep-26 15:41 Nm  14 44 07.603038 +10 07 34.27599
 2018-Sep-26 15:42 Nm  14 44 07.980878 +10 07 38.25978
 2018-Sep-26 15:43 Nm  14 44 08.358310 +10 07 42.24633
 2018-Sep-26 15:44 Nm  14 44 08.735331 +10 07 46.23563
 2018-Sep-26 15:45 Nm  14 44 09.111937 +10 07 50.22767
 2018-Sep-26 15:46 Nm  14 44 09.488128 +10 07 54.22244
 2018-Sep-26 15:47 Nm  14 44 09.863900 +10 07 58.21996
 2018-Sep-26 15:48 Nm  14 44 10.239250 +10 08 02.22021
 2018-Sep-26 15:49 Nm  14 44 10.614176 +10 08 06.22318
 2018-Sep-26 15:50 Cm  14 44 10.988676 +10 08 10.22888
 2018-Sep-26 15:51 Cm  14 44 11.362747 +10 08 14.23730
 2018-Sep-26 15:52 Cm  14 44 11.736387 +10 08 18.24843
 2018-Sep-26 15:53 Cm  14 44 12.109592 +10 08 22.26228
 2018-Sep-26 15:54 Cm  14 44 12.482361 +10 08 26.27883
 2018-Sep-26 15:55 Cm  14 44 12.854691 +10 08 30.29808
 2018-Sep-26 15:56 Cm  14 44 13.226579 +10 08 34.32003
 2018-Sep-26 15:57 Cm  14 44 13.598024 +10 08 38.34467
 2018-Sep-26 15:58 Cm  14 44 13.969022 +10 08 42.37200
 2018-Sep-26 15:59 Cm  14 44 14.339571 +10 08 46.40201
 2018-Sep-26 16:00 Cm  14 44 14.709669 +10 08 50.43470
 2018-Sep-26 16:01 Cm  14 44 15.079313 +10 08 54.47007
 2018-Sep-26 16:02 Cm  14 44 15.448501 +10 08 58.50811
